[{"OBJECT_NAME":"COSMOS 2538","OBJECT_ID":"2019-039D","EPOCH":"2026-03-09T23:22:28.343424","MEAN_MOTION":15.19536029,"ECCENTRICITY":0.00437345,"INCLINATION":97.5929,"RA_OF_ASC_NODE":147.7512,"ARG_OF_PERICENTER":31.8471,"MEAN_ANOMALY":328.5393,"EPHEMERIS_TYPE":0,"CLASSIFICATION_TYPE":"U","NORAD_CAT_ID":44424,"ELEMENT_SET_NO":999,"REV_AT_EPOCH":36483,"BSTAR":0.00035711669,"MEAN_MOTION_DOT":7.713e-5,"MEAN_MOTION_DDOT":0},{"OBJECT_NAME":"STARLINK-35825","OBJECT_ID":"2025-268L","EPOCH":"2026-03-09T02:30:48.731616","MEAN_MOTION":15.27596711,"ECCENTRICITY":0.0001091,"INCLINATION":43.0016,"RA_OF_ASC_NODE":350.0796,"ARG_OF_PERICENTER":266.9898,"MEAN_ANOMALY":93.0829,"EPHEMERIS_TYPE":0,"CLASSIFICATION_TYPE":"U","NORAD_CAT_ID":66567,"ELEMENT_SET_NO":999,"REV_AT_EPOCH":1787,"BSTAR":0.0011338233,"MEAN_MOTION_DOT":0.00031086,"MEAN_MOTION_DDOT":0}]
